STARLINK-31187          
1 58790U 24012D   26068.96342531  .00000327  00000+0  21422-4 0  9999
2 58790  43.0030 164.0660 0001509 274.5972  85.4707 15.27574505121270
TEVEL2-8                
1 63239U 25052AF  26068.66815443  .00019130  00000+0  69304-3 0  9994
2 63239  97.4055 324.2923 0008031 124.9191 235.2804 15.28392908 54807
